{
  "type": "FeatureCollection",
  "features": [
    {
      "type": "Feature",
      "properties": {
        "norad_id": 66527,
        "name": "STARLINK-35935",
        "group": "last-30-days",
        "lat": 30.243378125987643,
        "lon": 78.49244845105471,
        "alt_km": 410.035806142605,
        "timestamp": "2025-12-15T04:01:19.179256+00:00",
        "meta_object_name": "STARLINK-35935",
        "meta_object_id": "2025-265M",
        "meta_epoch": "2025-12-13T11:37:41.143872",
        "meta_mean_motion": 15.50556406,
        "meta_eccentricity": 0.00046793,
        "meta_inclination": 43.0007,
        "meta_ra_of_asc_node": 49.6123,
        "meta_arg_of_pericenter": 286.0879,
        "meta_mean_anomaly": 73.9466,
        "meta_ephemeris_type": 0,
        "meta_classification_type": "U",
        "meta_norad_cat_id": 66527,
        "meta_element_set_no": 999,
        "meta_rev_at_epoch": 387,
        "meta_bstar": 0.0023034303,
        "meta_mean_motion_dot": 0.00137109,
        "meta_mean_motion_ddot": 0,
        "tle_line1": "1 66527U 25265M   25347.48450398  .00137109  00000+0  23034-2 0  9992",
        "tle_line2": "2 66527  43.0007  49.6123 0004679 286.0879  73.9466 15.50556406  3873"
      },
      "geometry": {
        "type": "Point",
        "coordinates": [
          78.49244845105471,
          30.243378125987643
        ]
      }
    },
    {
      "type": "Feature",
      "properties": {
        "norad_id": 66528,
        "name": "STARLINK-35928",
        "group": "last-30-days",
        "lat": 30.708332817235714,
        "lon": 79.36227196186579,
        "alt_km": 410.4706609082723,
        "timestamp": "2025-12-15T04:01:19.179266+00:00",
        "meta_object_name": "STARLINK-35928",
        "meta_object_id": "2025-265N",
        "meta_epoch": "2025-12-14T04:37:31.787328",
        "meta_mean_motion": 15.50575093,
        "meta_eccentricity": 0.00013745,
        "meta_inclination": 42.9993,
        "meta_ra_of_asc_node": 45.4676,
        "meta_arg_of_pericenter": 257.7908,
        "meta_mean_anomaly": 102.2798,
        "meta_ephemeris_type": 0,
        "meta_classification_type": "U",
        "meta_norad_cat_id": 66528,
        "meta_element_set_no": 999,
        "meta_rev_at_epoch": 398,
        "meta_bstar": 0.0012830245,
        "meta_mean_motion_dot": 0.00075647,
        "meta_mean_motion_ddot": 0,
        "tle_line1": "1 66528U 25265N   25348.19272902  .00075647  00000+0  12830-2 0  9995",
        "tle_line2": "2 66528  42.9993  45.4676 0001374 257.7908 102.2798 15.50575093  3989"
      },
      "geometry": {
        "type": "Point",
        "coordinates": [
          79.36227196186579,
          30.708332817235714
        ]
      }
    },
    {
      "type": "Feature",
      "properties": {
        "norad_id": 66529,
        "name": "STARLINK-35933",
        "group": "last-30-days",
        "lat": -37.319708092842504,
        "lon": -14.858487245793121,
        "alt_km": 446.4941268002085,
        "timestamp": "2025-12-15T04:01:19.179276+00:00",
        "meta_object_name": "STARLINK-35933",
        "meta_object_id": "2025-265P",
        "meta_epoch": "2025-12-14T06:00:02.999808",
        "meta_mean_motion": 15.40665622,
        "meta_eccentricity": 0.00010673,
        "meta_inclination": 43.0006,
        "meta_ra_of_asc_node": 45.3224,
        "meta_arg_of_pericenter": 257.3844,
        "meta_mean_anomaly": 344.6364,
        "meta_ephemeris_type": 0,
        "meta_classification_type": "U",
        "meta_norad_cat_id": 66529,
        "meta_element_set_no": 999,
        "meta_rev_at_epoch": 523,
        "meta_bstar": 0.00076971657,
        "meta_mean_motion_dot": 0.00031947,
        "meta_mean_motion_ddot": 0,
        "tle_line1": "1 66529U 25265P   25348.25003472  .00031947  00000+0  76972-3 0  9990",
        "tle_line2": "2 66529  43.0006  45.3224 0001067 257.3844 344.6364 15.40665622  5237"
      },
      "geometry": {
        "type": "Point",
        "coordinates": [
          -14.858487245793121,
          -37.319708092842504
        ]
      }
    },
    {
      "type": "Feature",
      "properties": {
        "norad_id": 66530,
        "name": "STARLINK-35961",
        "group": "last-30-days",
        "lat": -24.77590664485243,
        "lon": 10.283329480244085,
        "alt_km": 445.6290537795612,
        "timestamp": "2025-12-15T04:01:19.179286+00:00",
        "meta_object_name": "STARLINK-35961",
        "meta_object_id": "2025-265Q",
        "meta_epoch": "2025-12-14T06:00:02.999808",
        "meta_mean_motion": 15.40676083,
        "meta_eccentricity": 0.00010973,
        "meta_inclination": 43.0003,
        "meta_ra_of_asc_node": 45.2618,
        "meta_arg_of_pericenter": 286.7461,
        "meta_mean_anomaly": 340.1179,
        "meta_ephemeris_type": 0,
        "meta_classification_type": "U",
        "meta_norad_cat_id": 66530,
        "meta_element_set_no": 999,
        "meta_rev_at_epoch": 523,
        "meta_bstar": 0.00079810288,
        "meta_mean_motion_dot": 0.00033153,
        "meta_mean_motion_ddot": 0,
        "tle_line1": "1 66530U 25265Q   25348.25003472  .00033153  00000+0  79810-3 0  9997",
        "tle_line2": "2 66530  43.0003  45.2618 0001097 286.7461 340.1179 15.40676083  5234"
      },
      "geometry": {
        "type": "Point",
        "coordinates": [
          10.283329480244085,
          -24.77590664485243
        ]
      }
    },
    {
      "type": "Feature",
      "properties": {
        "norad_id": 66531,
        "name": "STARLINK-35960",
        "group": "last-30-days",
        "lat": -9.168765143230159,
        "lon": 29.939293719027606,
        "alt_km": 445.3970922180897,
        "timestamp": "2025-12-15T04:01:19.179296+00:00",
        "meta_object_name": "STARLINK-35960",
        "meta_object_id": "2025-265R",
        "meta_epoch": "2025-12-14T06:00:02.999808",
        "meta_mean_motion": 15.40865011,
        "meta_eccentricity": 0.00011937,
        "meta_inclination": 43.0002,
        "meta_ra_of_asc_node": 45.2014,
        "meta_arg_of_pericenter": 302.2687,
        "meta_mean_anomaly": 349.4335,
        "meta_ephemeris_type": 0,
        "meta_classification_type": "U",
        "meta_norad_cat_id": 66531,
        "meta_element_set_no": 999,
        "meta_rev_at_epoch": 523,
        "meta_bstar": -0.0073950457,
        "meta_mean_motion_dot": -0.0029905,
        "meta_mean_motion_ddot": 0,
        "tle_line1": "1 66531U 25265R   25348.25003472 -.00299050  00000+0 -73950-2 0  9998",
        "tle_line2": "2 66531  43.0002  45.2014 0001193 302.2687 349.4335 15.40865011  5232"
      },
      "geometry": {
        "type": "Point",
        "coordinates": [
          29.939293719027606,
          -9.168765143230159
        ]
      }
    },
    {
      "type": "Feature",
      "properties": {
        "norad_id": 66532,
        "name": "STARLINK-35914",
        "group": "last-30-days",
        "lat": 8.068521535175917,
        "lon": 48.603773549525464,
        "alt_km": 444.1024682058096,
        "timestamp": "2025-12-15T04:01:19.179307+00:00",
        "meta_object_name": "STARLINK-35914",
        "meta_object_id": "2025-265S",
        "meta_epoch": "2025-12-14T06:00:02.999808",
        "meta_mean_motion": 15.44198439,
        "meta_eccentricity": 8.757e-05,
        "meta_inclination": 43.0002,
        "meta_ra_of_asc_node": 45.1534,
        "meta_arg_of_pericenter": 274.464,
        "meta_mean_anomaly": 37.3284,
        "meta_ephemeris_type": 0,
        "meta_classification_type": "U",
        "meta_norad_cat_id": 66532,
        "meta_element_set_no": 999,
        "meta_rev_at_epoch": 523,
        "meta_bstar": -0.048991914,
        "meta_mean_motion_dot": -0.02046033,
        "meta_mean_motion_ddot": 0,
        "tle_line1": "1 66532U 25265S   25348.25003472 -.02046033  00000+0 -48992-1 0  9999",
        "tle_line2": "2 66532  43.0002  45.1534 0000875 274.4640  37.3284 15.44198439  5237"
      },
      "geometry": {
        "type": "Point",
        "coordinates": [
          48.603773549525464,
          8.068521535175917
        ]
      }
    },
    {
      "type": "Feature",
      "properties": {
        "norad_id": 66533,
        "name": "STARLINK-35707",
        "group": "last-30-days",
        "lat": 35.47571969859417,
        "lon": 89.62673669916421,
        "alt_km": 409.7572437982499,
        "timestamp": "2025-12-15T04:01:19.179319+00:00",
        "meta_object_name": "STARLINK-35707",
        "meta_object_id": "2025-265T",
        "meta_epoch": "2025-12-13T20:51:14.754528",
        "meta_mean_motion": 15.50564385,
        "meta_eccentricity": 0.00024505,
        "meta_inclination": 42.9992,
        "meta_ra_of_asc_node": 47.3369,
        "meta_arg_of_pericenter": 286.6299,
        "meta_mean_anomaly": 73.4292,
        "meta_ephemeris_type": 0,
        "meta_classification_type": "U",
        "meta_norad_cat_id": 66533,
        "meta_element_set_no": 999,
        "meta_rev_at_epoch": 393,
        "meta_bstar": 0.0012610474,
        "meta_mean_motion_dot": 0.00074308,
        "meta_mean_motion_ddot": 0,
        "tle_line1": "1 66533U 25265T   25347.86892077  .00074308  00000+0  12610-2 0  9994",
        "tle_line2": "2 66533  42.9992  47.3369 0002450 286.6299  73.4292 15.50564385  3939"
      },
      "geometry": {
        "type": "Point",
        "coordinates": [
          89.62673669916421,
          35.47571969859417
        ]
      }
    }
  ]
}